{"type": "FeatureCollection", "features": [ {"type": "Feature", "properties": {"norad_id": 31378, "name": "FENGYUN 1C DEB", "group": "fengyun-1c-debris", "lat": -77.71166045864686, "lon": 2.333651131628923, "alt_km": 953.0554769981964, "timestamp": "2025-12-19T06:59:44.190789+00:00", "meta": {"OBJECT_NAME": "FENGYUN 1C DEB", "OBJECT_ID": "1999-025BSJ", "EPOCH": "2025-12-15T23:25:55.260192", "MEAN_MOTION": 13.80081198, "ECCENTRICITY": 0.01683642, "INCLINATION": 100.7566, "RA_OF_ASC_NODE": 239.3423, "ARG_OF_PERICENTER": 189.6652, "MEAN_ANOMALY": 170.1243, "EPHEMERIS_TYPE": 0, "CLASSIFICATION_TYPE": "U", "NORAD_CAT_ID": 31378, "ELEMENT_SET_NO": 999, "REV_AT_EPOCH": 94268, "BSTAR": 0.00064817453, "MEAN_MOTION_DOT": 6.94e-06, "MEAN_MOTION_DDOT": 0}, "tle": {"line1": "1 31378U 99025BSJ 25349.97633403  .00000694  00000+0  64817-3 0  9992", "line2": "2 31378 100.7566 239.3423 0168364 189.6652 170.1243 13.80081198942686"}}, "geometry": {"type": "Point", "coordinates": [2.333651131628923, -77.71166045864686]}}, {"type": "Feature", "properties": {"norad_id": 31381, "name": "FENGYUN 1C DEB", "group": "fengyun-1c-debris", "lat": 42.78379630687784, "lon": 68.66547033092526, "alt_km": 642.3758655240608, "timestamp": "2025-12-19T06:59:44.190799+00:00", "meta": {"OBJECT_NAME": "FENGYUN 1C DEB", "OBJECT_ID": "1999-025BSM", "EPOCH": "2025-12-17T01:19:47.177760", "MEAN_MOTION": 14.37053746, "ECCENTRICITY": 0.0198316, "INCLINATION": 98.4919, "RA_OF_ASC_NODE": 74.4052, "ARG_OF_PERICENTER": 19.179, "MEAN_ANOMALY": 341.6728, "EPHEMERIS_TYPE": 0, "CLASSIFICATION_TYPE": "U", "NORAD_CAT_ID": 31381, "ELEMENT_SET_NO": 999, "REV_AT_EPOCH": 97462, "BSTAR": 0.0002531282, "MEAN_MOTION_DOT": 8.91e-06, "MEAN_MOTION_DDOT": 0}, "tle": {"line1": "1 31381U 99025BSM 25351.05540715  .00000891  00000+0  25313-3 0  9998", "line2": "2 31381  98.4919  74.4052 0198316  19.1790 341.6728 14.37053746974624"}}, "geometry": {"type": "Point", "coordinates": [68.66547033092526, 42.78379630687784]}}, {"type": "Feature", "properties": {"norad_id": 31383, "name": "FENGYUN 1C DEB", "group": "fengyun-1c-debris", "lat": 57.167336887786725, "lon": 40.90273945045954, "alt_km": 906.2057883110629, "timestamp": "2025-12-19T06:59:44.190809+00:00", "meta": {"OBJECT_NAME": "FENGYUN 1C DEB", "OBJECT_ID": "1999-025BSP", "EPOCH": "2025-12-17T10:22:17.465376", "MEAN_MOTION": 14.05711597, "ECCENTRICITY": 0.01077198, "INCLINATION": 99.0662, "RA_OF_ASC_NODE": 53.3693, "ARG_OF_PERICENTER": 304.1704, "MEAN_ANOMALY": 68.9908, "EPHEMERIS_TYPE": 0, "CLASSIFICATION_TYPE": "U", "NORAD_CAT_ID": 31383, "ELEMENT_SET_NO": 999, "REV_AT_EPOCH": 95435, "BSTAR": 0.00049128566, "MEAN_MOTION_DOT": 7.98e-06, "MEAN_MOTION_DDOT": 0}, "tle": {"line1": "1 31383U 99025BSP 25351.43214659  .00000798  00000+0  49129-3 0  9994", "line2": "2 31383  99.0662  53.3693 0107719 304.1704  68.9908 14.05711597954351"}}, "geometry": {"type": "Point", "coordinates": [40.90273945045954, 57.167336887786725]}}, {"type": "Feature", "properties": {"norad_id": 31384, "name": "FENGYUN 1C DEB", "group": "fengyun-1c-debris", "lat": 12.387893005603003, "lon": -43.12590436419498, "alt_km": 626.2569350617987, "timestamp": "2025-12-19T06:59:44.190819+00:00", "meta": {"OBJECT_NAME": "FENGYUN 1C DEB", "OBJECT_ID": "1999-025BSQ", "EPOCH": "2025-12-15T21:47:48.716736", "MEAN_MOTION": 13.861707, "ECCENTRICITY": 0.04403051, "INCLINATION": 98.4559, "RA_OF_ASC_NODE": 315.6783, "ARG_OF_PERICENTER": 32.9792, "MEAN_ANOMALY": 26.4193, "EPHEMERIS_TYPE": 0, "CLASSIFICATION_TYPE": "U", "NORAD_CAT_ID": 31384, "ELEMENT_SET_NO": 999, "REV_AT_EPOCH": 93068, "BSTAR": 0.0019011237, "MEAN_MOTION_DOT": 4.683e-05, "MEAN_MOTION_DDOT": 0}, "tle": {"line1": "1 31384U 99025BSQ 25349.90820274  .00004683  00000+0  19011-2 0  9993", "line2": "2 31384  98.4559 315.6783 0440305  32.9792  26.4193 13.86170700930686"}}, "geometry": {"type": "Point", "coordinates": [-43.12590436419498, 12.387893005603003]}}, {"type": "Feature", "properties": {"norad_id": 31385, "name": "FENGYUN 1C DEB", "group": "fengyun-1c-debris", "lat": 81.03737770595596, "lon": -7.730159021781661, "alt_km": 680.6991857080357, "timestamp": "2025-12-19T06:59:44.190829+00:00", "meta": {"OBJECT_NAME": "FENGYUN 1C DEB", "OBJECT_ID": "1999-025BSR", "EPOCH": "2025-12-15T00:17:50.853696", "MEAN_MOTION": 14.44000374, "ECCENTRICITY": 0.01346301, "INCLINATION": 98.9538, "RA_OF_ASC_NODE": 79.2827, "ARG_OF_PERICENTER": 48.8944, "MEAN_ANOMALY": 128.3679, "EPHEMERIS_TYPE": 0, "CLASSIFICATION_TYPE": "U", "NORAD_CAT_ID": 31385, "ELEMENT_SET_NO": 999, "REV_AT_EPOCH": 98647, "BSTAR": 0.00014045716, "MEAN_MOTION_DOT": 4.82e-06, "MEAN_MOTION_DDOT": 0}, "tle": {"line1": "1 31385U 99025BSR 25349.01239414  .00000482  00000+0  14046-3 0  9993", "line2": "2 31385  98.9538  79.2827 0134630  48.8944 128.3679 14.44000374986470"}}, "geometry": {"type": "Point", "coordinates": [-7.730159021781661, 81.03737770595596]}}, {"type": "Feature", "properties": {"norad_id": 31386, "name": "FENGYUN 1C DEB", "group": "fengyun-1c-debris", "lat": -35.35408387911166, "lon": -178.49579690298316, "alt_km": 855.0742134862667, "timestamp": "2025-12-19T06:59:44.190839+00:00", "meta": {"OBJECT_NAME": "FENGYUN 1C DEB", "OBJECT_ID": "1999-025BSS", "EPOCH": "2025-12-15T11:50:58.338528", "MEAN_MOTION": 13.86045436, "ECCENTRICITY": 0.01979031, "INCLINATION": 98.4393, "RA_OF_ASC_NODE": 4.1242, "ARG_OF_PERICENTER": 276.754, "MEAN_ANOMALY": 81.1135, "EPHEMERIS_TYPE": 0, "CLASSIFICATION_TYPE": "U", "NORAD_CAT_ID": 31386, "ELEMENT_SET_NO": 999, "REV_AT_EPOCH": 93900, "BSTAR": 0.0015557861, "MEAN_MOTION_DOT": 2.049e-05, "MEAN_MOTION_DDOT": 0}, "tle": {"line1": "1 31386U 99025BSS 25349.49373077  .00002049  00000+0  15558-2 0  9999", "line2": "2 31386  98.4393   4.1242 0197903 276.7540  81.1135 13.86045436939002"}}, "geometry": {"type": "Point", "coordinates": [-178.49579690298316, -35.35408387911166]}}, {"type": "Feature", "properties": {"norad_id": 31387, "name": "FENGYUN 1C DEB", "group": "fengyun-1c-debris", "lat": 34.763981643292254, "lon": 58.3589536560164, "alt_km": 671.6521866232615, "timestamp": "2025-12-19T06:59:44.190850+00:00", "meta": {"OBJECT_NAME": "FENGYUN 1C DEB", "OBJECT_ID": "1999-025BST", "EPOCH": "2025-12-18T03:08:13.493472", "MEAN_MOTION": 14.13574773, "ECCENTRICITY": 0.02419454, "INCLINATION": 99.168, "RA_OF_ASC_NODE": 230.7325, "ARG_OF_PERICENTER": 156.0851, "MEAN_ANOMALY": 205.1786, "EPHEMERIS_TYPE": 0, "CLASSIFICATION_TYPE": "U", "NORAD_CAT_ID": 31387, "ELEMENT_SET_NO": 999, "REV_AT_EPOCH": 96373, "BSTAR": 0.00015340114, "MEAN_MOTION_DOT": 3.34e-06, "MEAN_MOTION_DDOT": 0}, "tle": {"line1": "1 31387U 99025BST 25352.13071173  .00000334  00000+0  15340-3 0  9992", "line2": "2 31387  99.1680 230.7325 0241945 156.0851 205.1786 14.13574773963739"}}, "geometry": {"type": "Point", "coordinates": [58.3589536560164, 34.763981643292254]}}, {"type": "Feature", "properties": {"norad_id": 31388, "name": "FENGYUN 1C DEB", "group": "fengyun-1c-debris", "lat": -40.4177504676354, "lon": 153.50240177645892, "alt_km": 848.0268937085339, "timestamp": "2025-12-19T06:59:44.190860+00:00", "meta": {"OBJECT_NAME": "FENGYUN 1C DEB", "OBJECT_ID": "1999-025BSU", "EPOCH": "2025-12-18T18:36:02.153088", "MEAN_MOTION": 14.07430228, "ECCENTRICITY": 0.00468237, "INCLINATION": 98.8051, "RA_OF_ASC_NODE": 340.5841, "ARG_OF_PERICENTER": 183.8655, "MEAN_ANOMALY": 301.3959, "EPHEMERIS_TYPE": 0, "CLASSIFICATION_TYPE": "U", "NORAD_CAT_ID": 31388, "ELEMENT_SET_NO": 999, "REV_AT_EPOCH": 96526, "BSTAR": 0.00020373711, "MEAN_MOTION_DOT": 3.03e-06, "MEAN_MOTION_DDOT": 0}, "tle": {"line1": "1 31388U 99025BSU 25352.77502492  .00000303  00000+0  20374-3 0  9995", "line2": "2 31388  98.8051 340.5841 0046823 183.8655 301.3959 14.07430228965269"}}, "geometry": {"type": "Point", "coordinates": [153.50240177645892, -40.4177504676354]}}, {"type": "Feature", "properties": {"norad_id": 31389, "name": "FENGYUN 1C DEB", "group": "fengyun-1c-debris", "lat": -26.085879976416567, "lon": 163.75862052512068, "alt_km": 713.8211721892039, "timestamp": "2025-12-19T06:59:44.190870+00:00", "meta": {"OBJECT_NAME": "FENGYUN 1C DEB", "OBJECT_ID": "1999-025BSV", "EPOCH": "2025-12-18T23:29:50.316576", "MEAN_MOTION": 14.61278637, "ECCENTRICITY": 0.00281923, "INCLINATION": 99.0411, "RA_OF_ASC_NODE": 158.9465, "ARG_OF_PERICENTER": 170.531, "MEAN_ANOMALY": 320.4337, "EPHEMERIS_TYPE": 0, "CLASSIFICATION_TYPE": "U", "NORAD_CAT_ID": 31389, "ELEMENT_SET_NO": 999, "REV_AT_EPOCH": 96588, "BSTAR": 0.0034475947, "MEAN_MOTION_DOT": 0.00017094, "MEAN_MOTION_DDOT": 0}, "tle": {"line1": "1 31389U 99025BSV 25352.97905459  .00017094  00000+0  34476-2 0  9990", "line2": "2 31389  99.0411 158.9465 0028192 170.5310 320.4337 14.61278637965880"}}, "geometry": {"type": "Point", "coordinates": [163.75862052512068, -26.085879976416567]}}, {"type": "Feature", "properties": {"norad_id": 31410, "name": "FENGYUN 1C DEB", "group": "fengyun-1c-debris", "lat": 42.978964182074165, "lon": 146.77206467033076, "alt_km": 795.9134551160414, "timestamp": "2025-12-19T06:59:44.190880+00:00", "meta": {"OBJECT_NAME": "FENGYUN 1C DEB", "OBJECT_ID": "1999-025BSW", "EPOCH": "2025-12-18T05:01:14.684736", "MEAN_MOTION": 14.44799879, "ECCENTRICITY": 0.01104959, "INCLINATION": 98.8358, "RA_OF_ASC_NODE": 153.9811, "ARG_OF_PERICENTER": 270.2553, "MEAN_ANOMALY": 266.5262, "EPHEMERIS_TYPE": 0, "CLASSIFICATION_TYPE": "U", "NORAD_CAT_ID": 31410, "ELEMENT_SET_NO": 999, "REV_AT_EPOCH": 97830, "BSTAR": 0.00073154737, "MEAN_MOTION_DOT": 2.687e-05, "MEAN_MOTION_DDOT": 0}, "tle": {"line1": "1 31410U 99025BSW 25352.20919774  .00002687  00000+0  73155-3 0  9996", "line2": "2 31410  98.8358 153.9811 0110495 270.2553 266.5262 14.44799879978302"}}, "geometry": {"type": "Point", "coordinates": [146.77206467033076, 42.978964182074165]}}]}